[{"OBJECT_NAME":"STARLINK-32129","OBJECT_ID":"2024-120Y","EPOCH":"2026-03-09T23:12:26.237376","MEAN_MOTION":15.30186821,"ECCENTRICITY":0.00011023,"INCLINATION":53.1612,"RA_OF_ASC_NODE":318.9879,"ARG_OF_PERICENTER":80.4957,"MEAN_ANOMALY":279.6168,"EPHEMERIS_TYPE":0,"CLASSIFICATION_TYPE":"U","NORAD_CAT_ID":60157,"ELEMENT_SET_NO":999,"REV_AT_EPOCH":9649,"BSTAR":6.2011788e-5,"MEAN_MOTION_DOT":1.477e-5,"MEAN_MOTION_DDOT":0},{"OBJECT_NAME":"TOMORROW-S4","OBJECT_ID":"2024-247K","EPOCH":"2026-03-09T12:47:35.836224","MEAN_MOTION":15.27717249,"ECCENTRICITY":0.00044343,"INCLINATION":44.9818,"RA_OF_ASC_NODE":117.9996,"ARG_OF_PERICENTER":210.4078,"MEAN_ANOMALY":149.6548,"EPHEMERIS_TYPE":0,"CLASSIFICATION_TYPE":"U","NORAD_CAT_ID":62386,"ELEMENT_SET_NO":999,"REV_AT_EPOCH":6770,"BSTAR":0.00046927249,"MEAN_MOTION_DOT":0.00012677,"MEAN_MOTION_DDOT":0}]
